{
  "type": "FeatureCollection",
  "features": [
    {
      "type": "Feature",
      "properties": {
        "norad_id": 30849,
        "name": "FENGYUN 1C DEB",
        "group": "fengyun-1c-debris",
        "lat": -78.69965875127826,
        "lon": 101.87289584116853,
        "alt_km": 832.1407989263398,
        "timestamp": "2025-12-14T22:38:41.037105+00:00",
        "meta_object_name": "FENGYUN 1C DEB",
        "meta_object_id": "1999-025AWK",
        "meta_epoch": "2025-12-14T02:51:52.254720",
        "meta_mean_motion": 14.18866782,
        "meta_eccentricity": 0.00479881,
        "meta_inclination": 99.0481,
        "meta_ra_of_asc_node": 48.1471,
        "meta_arg_of_pericenter": 2.2217,
        "meta_mean_anomaly": 27.6435,
        "meta_ephemeris_type": 0,
        "meta_classification_type": "U",
        "meta_norad_cat_id": 30849,
        "meta_element_set_no": 999,
        "meta_rev_at_epoch": 96392,
        "meta_bstar": 0.0015567272,
        "meta_mean_motion_dot": 3.232e-05,
        "meta_mean_motion_ddot": 0,
        "tle_line1": "1 30849U 99025AWK 25348.11935480  .00003232  00000+0  15567-2 0  9997",
        "tle_line2": "2 30849  99.0481  48.1471 0047988   2.2217  27.6435 14.18866782963929"
      },
      "geometry": {
        "type": "Point",
        "coordinates": [
          101.87289584116853,
          -78.69965875127826
        ]
      }
    },
    {
      "type": "Feature",
      "properties": {
        "norad_id": 30850,
        "name": "FENGYUN 1C DEB",
        "group": "fengyun-1c-debris",
        "lat": -7.433564110747927,
        "lon": 33.216515526979855,
        "alt_km": 763.0314220654609,
        "timestamp": "2025-12-14T22:38:41.037115+00:00",
        "meta_object_name": "FENGYUN 1C DEB",
        "meta_object_id": "1999-025AWL",
        "meta_epoch": "2025-12-14T02:09:02.817216",
        "meta_mean_motion": 14.16300139,
        "meta_eccentricity": 0.01092824,
        "meta_inclination": 98.3952,
        "meta_ra_of_asc_node": 213.5151,
        "meta_arg_of_pericenter": 193.9628,
        "meta_mean_anomaly": 322.1393,
        "meta_ephemeris_type": 0,
        "meta_classification_type": "U",
        "meta_norad_cat_id": 30850,
        "meta_element_set_no": 999,
        "meta_rev_at_epoch": 95817,
        "meta_bstar": 0.0022569182,
        "meta_mean_motion_dot": 4.706e-05,
        "meta_mean_motion_ddot": 0,
        "tle_line1": "1 30850U 99025AWL 25348.08961594  .00004706  00000+0  22569-2 0  9997",
        "tle_line2": "2 30850  98.3952 213.5151 0109282 193.9628 322.1393 14.16300139958173"
      },
      "geometry": {
        "type": "Point",
        "coordinates": [
          33.216515526979855,
          -7.433564110747927
        ]
      }
    },
    {
      "type": "Feature",
      "properties": {
        "norad_id": 30852,
        "name": "FENGYUN 1C DEB",
        "group": "fengyun-1c-debris",
        "lat": 54.94394982839211,
        "lon": -160.71419254023533,
        "alt_km": 862.8629987259992,
        "timestamp": "2025-12-14T22:38:41.037125+00:00",
        "meta_object_name": "FENGYUN 1C DEB",
        "meta_object_id": "1999-025AWN",
        "meta_epoch": "2025-12-14T06:43:43.815072",
        "meta_mean_motion": 14.10287606,
        "meta_eccentricity": 0.00558814,
        "meta_inclination": 98.7336,
        "meta_ra_of_asc_node": 5.987,
        "meta_arg_of_pericenter": 230.1473,
        "meta_mean_anomaly": 129.4775,
        "meta_ephemeris_type": 0,
        "meta_classification_type": "U",
        "meta_norad_cat_id": 30852,
        "meta_element_set_no": 999,
        "meta_rev_at_epoch": 96404,
        "meta_bstar": 0.00061985361,
        "meta_mean_motion_dot": 1.072e-05,
        "meta_mean_motion_ddot": 0,
        "tle_line1": "1 30852U 99025AWN 25348.28036823  .00001072  00000+0  61985-3 0  9998",
        "tle_line2": "2 30852  98.7336   5.9870 0055881 230.1473 129.4775 14.10287606964045"
      },
      "geometry": {
        "type": "Point",
        "coordinates": [
          -160.71419254023533,
          54.94394982839211
        ]
      }
    },
    {
      "type": "Feature",
      "properties": {
        "norad_id": 30856,
        "name": "FENGYUN 1C DEB",
        "group": "fengyun-1c-debris",
        "lat": -20.41737405869284,
        "lon": -9.417532138154312,
        "alt_km": 689.862917364363,
        "timestamp": "2025-12-14T22:38:41.037135+00:00",
        "meta_object_name": "FENGYUN 1C DEB",
        "meta_object_id": "1999-025AWS",
        "meta_epoch": "2025-12-14T00:44:33.953856",
        "meta_mean_motion": 14.46233505,
        "meta_eccentricity": 0.00877429,
        "meta_inclination": 98.1982,
        "meta_ra_of_asc_node": 172.776,
        "meta_arg_of_pericenter": 235.1141,
        "meta_mean_anomaly": 257.3583,
        "meta_ephemeris_type": 0,
        "meta_classification_type": "U",
        "meta_norad_cat_id": 30856,
        "meta_element_set_no": 999,
        "meta_rev_at_epoch": 96544,
        "meta_bstar": 0.0050070545,
        "meta_mean_motion_dot": 0.00018801,
        "meta_mean_motion_ddot": 0,
        "tle_line1": "1 30856U 99025AWS 25348.03094854  .00018801  00000+0  50071-2 0  9994",
        "tle_line2": "2 30856  98.1982 172.7760 0087742 235.1141 257.3583 14.46233505965440"
      },
      "geometry": {
        "type": "Point",
        "coordinates": [
          -9.417532138154312,
          -20.41737405869284
        ]
      }
    },
    {
      "type": "Feature",
      "properties": {
        "norad_id": 30857,
        "name": "FENGYUN 1C DEB",
        "group": "fengyun-1c-debris",
        "lat": 73.36953229434992,
        "lon": -53.08908600955831,
        "alt_km": 738.1963927271527,
        "timestamp": "2025-12-14T22:38:41.037145+00:00",
        "meta_object_name": "FENGYUN 1C DEB",
        "meta_object_id": "1999-025AWT",
        "meta_epoch": "2025-12-10T22:20:28.597056",
        "meta_mean_motion": 14.51403304,
        "meta_eccentricity": 0.0041899,
        "meta_inclination": 98.9745,
        "meta_ra_of_asc_node": 334.5727,
        "meta_arg_of_pericenter": 300.5616,
        "meta_mean_anomaly": 59.1445,
        "meta_ephemeris_type": 0,
        "meta_classification_type": "U",
        "meta_norad_cat_id": 30857,
        "meta_element_set_no": 999,
        "meta_rev_at_epoch": 96697,
        "meta_bstar": 0.0076916,
        "meta_mean_motion_dot": 0.0003112,
        "meta_mean_motion_ddot": 0,
        "tle_line1": "1 30857U 99025AWT 25344.93088654  .00031120  00000+0  76916-2 0  9996",
        "tle_line2": "2 30857  98.9745 334.5727 0041899 300.5616  59.1445 14.51403304966970"
      },
      "geometry": {
        "type": "Point",
        "coordinates": [
          -53.08908600955831,
          73.36953229434992
        ]
      }
    },
    {
      "type": "Feature",
      "properties": {
        "norad_id": 30858,
        "name": "FENGYUN 1C DEB",
        "group": "fengyun-1c-debris",
        "lat": 10.752002142115007,
        "lon": -131.75976895371238,
        "alt_km": 824.95166892013,
        "timestamp": "2025-12-14T22:38:41.037155+00:00",
        "meta_object_name": "FENGYUN 1C DEB",
        "meta_object_id": "1999-025AWU",
        "meta_epoch": "2025-12-13T19:05:16.931904",
        "meta_mean_motion": 14.17782716,
        "meta_eccentricity": 0.00307807,
        "meta_inclination": 98.7992,
        "meta_ra_of_asc_node": 45.4175,
        "meta_arg_of_pericenter": 106.9198,
        "meta_mean_anomaly": 324.6354,
        "meta_ephemeris_type": 0,
        "meta_classification_type": "U",
        "meta_norad_cat_id": 30858,
        "meta_element_set_no": 999,
        "meta_rev_at_epoch": 96995,
        "meta_bstar": 0.00051647125,
        "meta_mean_motion_dot": 1.014e-05,
        "meta_mean_motion_ddot": 0,
        "tle_line1": "1 30858U 99025AWU 25347.79533486  .00001014  00000+0  51647-3 0  9996",
        "tle_line2": "2 30858  98.7992  45.4175 0030780 106.9198 324.6354 14.17782716969957"
      },
      "geometry": {
        "type": "Point",
        "coordinates": [
          -131.75976895371238,
          10.752002142115007
        ]
      }
    },
    {
      "type": "Feature",
      "properties": {
        "norad_id": 30859,
        "name": "FENGYUN 1C DEB",
        "group": "fengyun-1c-debris",
        "lat": 44.06893734464628,
        "lon": -132.06234126860872,
        "alt_km": 732.5032539486283,
        "timestamp": "2025-12-14T22:38:41.037165+00:00",
        "meta_object_name": "FENGYUN 1C DEB",
        "meta_object_id": "1999-025AWV",
        "meta_epoch": "2025-12-13T09:34:07.097664",
        "meta_mean_motion": 14.49096664,
        "meta_eccentricity": 0.00309861,
        "meta_inclination": 98.9223,
        "meta_ra_of_asc_node": 37.5581,
        "meta_arg_of_pericenter": 28.7881,
        "meta_mean_anomaly": 331.5013,
        "meta_ephemeris_type": 0,
        "meta_classification_type": "U",
        "meta_norad_cat_id": 30859,
        "meta_element_set_no": 999,
        "meta_rev_at_epoch": 97044,
        "meta_bstar": 0.0047754701,
        "meta_mean_motion_dot": 0.00018255,
        "meta_mean_motion_ddot": 0,
        "tle_line1": "1 30859U 99025AWV 25347.39869326  .00018255  00000+0  47755-2 0  9997",
        "tle_line2": "2 30859  98.9223  37.5581 0030986  28.7881 331.5013 14.49096664970448"
      },
      "geometry": {
        "type": "Point",
        "coordinates": [
          -132.06234126860872,
          44.06893734464628
        ]
      }
    }
  ]
}